{"type": "Feature", "geometry": {"type": "MultiPolygon", "coordinates": [[[[80.10429178, 13.646527253], [80.102081463, 13.643182982], [80.091768156, 13.630543682], [80.088962023, 13.627729276], [80.07629781, 13.617333392], [80.073020614, 13.615145405], [80.058505546, 13.607403164], [80.054890185, 13.60590841], [80.039097157, 13.601125273], [80.035278707, 13.600364775], [80.018830886, 13.598729421], [80.014944073, 13.598722514], [79.998490366, 13.600299418], [79.994669497, 13.601046262], [79.978859026, 13.605773168], [79.975238808, 13.607254774], [79.960695374, 13.614945148], [79.95741087, 13.61712091], [79.944708408, 13.627471289], [79.941892578, 13.630274895], [79.931532556, 13.642876833], [79.930345665, 13.6444768], [79.796917402, 13.844437184], [79.795772347, 13.84638275], [79.787392388, 13.862658061], [79.785781811, 13.866919486], [79.781317617, 13.884608395], [79.78088561, 13.886854822], [79.747499501, 14.136836771], [79.747352259, 14.138411903], [79.746677239, 14.150982261], [79.746758703, 14.154151688], [79.748078851, 14.166673196], [79.748309226, 14.168251602], [79.891128595, 14.932181308], [79.891607138, 14.934171181], [79.896187804, 14.949679908], [79.897721359, 14.953425976], [79.905360697, 14.967750581], [79.90759385, 14.971083046], [79.917991833, 14.983659825], [79.920811517, 14.986452428], [79.933559354, 14.996786353], [79.936836937, 14.998947295], [79.951433119, 15.00663154], [79.955035191, 15.008100341], [79.970905233, 15.012832335], [79.974699805, 15.013573796], [79.991218895, 15.015167176], [79.995076992, 15.015165466], [80.011594658, 15.013557444], [80.01538868, 15.012812587], [80.03125449, 15.008066439], [80.034855439, 15.006594325], [80.049444698, 14.998896897], [80.052720556, 14.996732813], [80.065458971, 14.986387144], [80.06827631, 14.983591692], [80.078662656, 14.971005057], [80.08089286, 14.967670193], [80.088518712, 14.953338026], [80.090048792, 14.949590186], [80.09461458, 14.934076538], [80.09509171, 14.932083435], [80.218458604, 14.268127074], [80.218710214, 14.266314775], [80.220037919, 14.251954505], [80.220042453, 14.24832166], [80.218750614, 14.233958269], [80.218507177, 14.232165309], [80.118314417, 13.682187209], [80.117851724, 13.680218104], [80.113353938, 13.664657456], [80.111846711, 13.660911128], [80.10429178, 13.646527253]]], [[[80.313622151, 15.682052975], [80.309949261, 15.682222499], [80.29417155, 15.684416531], [80.290580425, 15.685259345], [80.27551413, 15.690300196], [80.272115667, 15.691801104], [80.258302864, 15.699507398], [80.25521148, 15.701635323], [80.243149282, 15.711729775], [80.24048164, 15.714432321], [80.230604347, 15.726551684], [80.229471726, 15.72808523], [80.096035346, 15.928040698], [80.095048806, 15.929684579], [80.087698359, 15.943380506], [80.086203204, 15.94696313], [80.081657307, 15.961755395], [80.080879569, 15.965587149], [80.079302346, 15.980943699], [80.079285978, 15.984864281], [80.080734845, 16.000232649], [80.081481281, 16.004073177], [80.085904785, 16.018900348], [80.087372495, 16.022499079], [80.094612068, 16.036251393], [80.096723309, 16.03946756], [80.106518888, 16.051649933], [80.109171185, 16.05437218], [80.121170508, 16.064545952], [80.124249009, 16.066694206], [80.138020257, 16.074492972], [80.141407587, 16.07601503], [80.156454932, 16.08115787], [80.16003679, 16.08202332], [80.175818278, 16.084324949], [80.177678057, 16.084507955], [80.803458294, 16.116670356], [80.745921372, 16.774717382], [80.745848583, 16.776818637], [80.746145242, 16.793334487], [80.746663391, 16.79751217], [80.750417436, 16.813629824], [80.751787121, 16.817582145], [80.758844606, 16.832637011], [80.760977792, 16.836180083], [80.771048381, 16.849551243], [80.773820083, 16.852540734], [80.786488923, 16.863676589], [80.789756454, 16.866011841], [80.804501224, 16.874452914], [80.808119726, 16.876071754], [80.824332183, 16.881469702], [80.828163024, 16.882338604], [80.845174142, 16.884470638], [80.849086155, 16.884575073], [80.866193821, 16.883353188], [80.870059507, 16.882691577], [80.886557605, 16.878166198], [80.890247315, 16.876749147], [80.90545498, 16.869107044], [80.907211617, 16.868110162], [81.273984178, 16.634729017], [81.275745755, 16.633469119], [81.289781699, 16.622233662], [81.292848017, 16.619179308], [81.304049781, 16.605297034], [81.30641653, 16.601595465], [81.314260808, 16.585715729], [81.315774846, 16.581534514], [81.319895665, 16.56439993], [81.32029706, 16.562192901], [81.353484165, 16.295481605], [81.353631437, 16.29349293], [81.35400735, 16.277863614], [81.353707428, 16.273899225], [81.350981687, 16.25848896], [81.349910397, 16.254679737], [81.344184323, 16.240057379], [81.342403419, 16.236563823], [81.333888967, 16.223269027], [81.331493123, 16.220223969], [81.320504975, 16.208747299], [81.319117675, 16.207430571], [81.208025387, 16.111659251], [81.207591349, 16.111295654], [81.203873912, 16.108270036], [81.203436209, 16.107923829], [80.981262595, 15.937177084], [80.979681392, 15.936078752], [80.965839141, 15.927420493], [80.96239999, 15.925704887], [80.947079011, 15.91982418], [80.943407407, 15.918803768], [80.927195731, 15.915926284], [80.923413912, 15.915620547], [80.906933632, 15.9158567], [80.903160772, 15.916270951], [80.887044249, 15.919611675], [80.883399792, 15.920738656], [80.877869264, 15.923047111], [80.7274911, 15.817728512], [80.726273529, 15.81694], [80.715690237, 15.81061876], [80.71309694, 15.809315146], [80.701666585, 15.804574267], [80.700330026, 15.804075008], [80.350443833, 15.687421584], [80.348682067, 15.686922561], [80.333189464, 15.683291341], [80.329543687, 15.682784717], [80.313622151, 15.682052975]]], [[[81.770354713, 16.222041859], [81.766808532, 16.220799758], [81.751064737, 16.216899628], [81.747371755, 16.216343995], [81.731145871, 16.215437056], [81.727419375, 16.215576967], [81.711315079, 16.217696991], [81.707667258, 16.218530245], [81.692283732, 16.223598383], [81.688829264, 16.22511078], [81.674738976, 16.232938481], [81.671597237, 16.235099705], [81.659324702, 16.245395704], [81.656618762, 16.248152853], [81.646621052, 16.260533973], [81.644472078, 16.263804727], [81.63712181, 16.277810108], [81.635638633, 16.281478485], [81.631210059, 16.296586695], [81.630475591, 16.300504459], [81.629134314, 16.316152883], [81.629192498, 16.320148402], [81.630989213, 16.335754173], [81.631837073, 16.339647733], [81.636705567, 16.354629438], [81.637419081, 16.356500688], [81.820688742, 16.773173537], [81.821720468, 16.775198506], [81.830823197, 16.790803441], [81.833480697, 16.794375674], [81.845907388, 16.807684208], [81.847503824, 16.809214762], [81.964114994, 16.909245646], [81.965595784, 16.910399791], [81.978414246, 16.919456656], [81.980769669, 16.920813286], [81.886474375, 16.932804791], [81.884635876, 16.933126381], [81.868573936, 16.936715534], [81.864976449, 16.937886042], [81.849943224, 16.944407167], [81.846596639, 16.946257332], [81.833163776, 16.955462547], [81.830193172, 16.95795376], [81.818871681, 16.969493094], [81.816405661, 16.972559245], [81.807626505, 16.985993899], [81.805788332, 16.989533999], [81.79988601, 17.004352991], [81.798779526, 17.008228569], [81.795979291, 17.023868134], [81.795672865, 17.027908709], [81.796082054, 17.04377372], [81.796595883, 17.04779107], [81.800199721, 17.063277672], [81.80150159, 17.067085695], [81.808163629, 17.081604297], [81.810175028, 17.085038327], [81.819642236, 17.098036066], [81.822252319, 17.100965766], [81.834164627, 17.111947596], [81.837246585, 17.114280751], [81.851150557, 17.12282834], [81.852864423, 17.123769746], [82.503069754, 17.440579357], [82.504832537, 17.441335931], [82.520045769, 17.447017833], [82.52364031, 17.447990288], [82.539706812, 17.450764476], [82.543399711, 17.451054016], [82.559722199, 17.450817417], [82.563406784, 17.450420632], [82.579378444, 17.447182105], [82.582947636, 17.44610377], [82.597974771, 17.439983765], [82.601316253, 17.438239361], [82.614840432, 17.429465418], [82.6178343, 17.427087505], [82.629353164, 17.415985754], [82.631874145, 17.413032585], [82.640960092, 17.400015587], [82.642885687, 17.39657911], [82.649201738, 17.382130482], [82.650425831, 17.3783399], [82.653738087, 17.362996313], [82.654187004, 17.359013778], [82.65437324, 17.343344996], [82.654019021, 17.339352464], [82.651073111, 17.323940182], [82.64993884, 17.320120302], [82.643970871, 17.305536555], [82.642125863, 17.302053474], [82.633357942, 17.288839428], [82.632212537, 17.287282175], [82.41548724, 17.020655454], [82.415128905, 17.020226977], [82.412035395, 17.016631185], [82.411657885, 17.016204812], [82.325854561, 16.922031653], [82.324465328, 16.92064946], [82.312351673, 16.909724556], [82.30922644, 16.907414477], [82.295128931, 16.898978911], [82.291663321, 16.89733393], [82.276125595, 16.891712927], [82.272445286, 16.890765479], [82.256066325, 16.888175755], [82.252290459, 16.887940994], [82.235701573, 16.888482421], [82.233830909, 16.888631563], [82.107308149, 16.904721425], [82.107862585, 16.904192108], [82.118052153, 16.892442284], [82.120264742, 16.88933587], [82.127986479, 16.875955875], [82.128871293, 16.87423551], [82.212207407, 16.690908395], [82.212990713, 16.688905926], [82.218321813, 16.672769648], [82.21922454, 16.668560167], [82.220973344, 16.651709584], [82.220952912, 16.64739225], [82.21904456, 16.630557753], [82.218103109, 16.626360167], [82.212621225, 16.610271266], [82.210824656, 16.606406481], [82.202007564, 16.591760209], [82.199471679, 16.588405137], [82.187701952, 16.575835898], [82.18622308, 16.574410839], [81.802857103, 16.241210983], [81.801374471, 16.240040551], [81.788312626, 16.230695438], [81.785030625, 16.228790039], [81.770354713, 16.222041859]]], [[[82.846280829, 17.448835857], [82.842206088, 17.449053031], [82.824434047, 17.451837951], [82.820467988, 17.452885236], [82.803709437, 17.459210419], [82.801825767, 17.460034326], [82.568584366, 17.576683036], [82.56688456, 17.577639477], [82.552668938, 17.586577782], [82.549534566, 17.589013959], [82.537461956, 17.600491146], [82.53483233, 17.603552987], [82.52538793, 17.617108275], [82.5234014, 17.620694512], [82.51696514, 17.635783551], [82.515741755, 17.639748922], [82.512572968, 17.655765615], [82.512194616, 17.659925583], [82.512421505, 17.676226396], [82.512560979, 17.678322166], [82.562370444, 18.094958811], [82.562703046, 18.096913182], [82.566037554, 18.111955271], [82.567257635, 18.115682449], [82.57349444, 18.129855121], [82.575391202, 18.133233612], [82.584307816, 18.146029828], [82.586777162, 18.148937288], [82.598055022, 18.159899165], [82.600978335, 18.162249971], [82.61421416, 18.170985205], [82.617471674, 18.1727264], [82.632191889, 18.178922345], [82.635670508, 18.18002532], [82.651348223, 18.183460213], [82.654943488, 18.18391188], [82.671017422, 18.184462805], [82.674630974, 18.184258983], [82.690525626, 18.181906279], [82.692350166, 18.181548854], [83.334122592, 18.024533106], [83.331560859, 18.02643637], [83.32973099, 18.027973791], [83.315176173, 18.041767355], [83.31207842, 18.045518177], [83.301395975, 18.06224277], [83.300203424, 18.064390033], [83.104440075, 18.474327656], [83.103709, 18.476064596], [83.098538676, 18.490173499], [83.097571227, 18.493879297], [83.09519515, 18.508652877], [83.094952548, 18.512496696], [83.095451766, 18.527435579], [83.095949673, 18.531251293], [83.099308044, 18.545850389], [83.100516149, 18.549474606], [83.106620788, 18.563240193], [83.108468658, 18.566529309], [83.117113664, 18.578995753], [83.118261911, 18.580495103], [83.343243905, 18.847177461], [83.344618787, 18.848649839], [83.356468148, 18.860122394], [83.359540228, 18.862561375], [83.373532555, 18.871585395], [83.37695799, 18.873352592], [83.392544445, 18.879574035], [83.396195014, 18.880641771], [83.412763995, 18.883816565], [83.416523428, 18.884173901], [83.43342465, 18.884177544], [83.437184165, 18.883821842], [83.453754292, 18.880654297], [83.457405123, 18.879588229], [83.472993913, 18.873373907], [83.47641984, 18.871608427], [83.490415755, 18.86259127], [83.493488632, 18.860154035], [83.5053429, 18.848687894], [83.507924178, 18.845635273], [83.517172335, 18.83216997], [83.519122862, 18.828598859], [83.525402938, 18.813662486], [83.526105931, 18.811713657], [83.667585496, 18.345077604], [83.668125755, 18.34283859], [83.671309364, 18.325258867], [83.671603464, 18.320675385], [83.670693893, 18.302855828], [83.670446275, 18.300578404], [83.620312368, 18.000617499], [83.619896648, 17.998708847], [83.61590295, 17.983893899], [83.614529662, 17.980253572], [83.607706073, 17.966417033], [83.605684821, 17.963151943], [83.596273579, 17.950783845], [83.593710643, 17.948005537], [83.582045421, 17.937543836], [83.579057786, 17.935328927], [83.565551853, 17.927144038], [83.562255782, 17.925539401], [83.550119786, 17.920953605], [83.553302214, 17.908818481], [83.553927978, 17.904811006], [83.554771097, 17.889014391], [83.554574536, 17.884956972], [83.55220649, 17.869303078], [83.551201417, 17.8653888], [83.545712666, 17.85047028], [83.5439645, 17.846875588], [83.535563506, 17.833257127], [83.533176064, 17.830125386], [83.522181308, 17.818322367], [83.520801047, 17.81697691], [83.289329856, 17.612142511], [83.28788532, 17.610979055], [83.275159375, 17.601668194], [83.271980921, 17.599767546], [83.257657692, 17.592915384], [83.255987631, 17.592207614], [82.887631196, 17.455450142], [82.885689281, 17.45483968], [82.868305171, 17.450332822], [82.864264546, 17.449716746], [82.846280829, 17.448835857]]], [[[83.8719225, 18.195958766], [83.868210227, 18.196790041], [83.852269958, 18.201993715], [83.848747257, 18.203532297], [83.834192533, 18.211636206], [83.830984545, 18.213858113], [83.818386312, 18.224544343], [83.815627799, 18.22740122], [83.805480501, 18.24025056], [83.803309325, 18.243658535], [83.796011523, 18.258166878], [83.794554381, 18.261998767], [83.790393091, 18.277596836], [83.789745834, 18.281682957], [83.788885183, 18.297758588], [83.788881944, 18.299834708], [83.795021428, 18.421628452], [83.79522267, 18.42362369], [83.797559048, 18.439012101], [83.798547863, 18.442875788], [83.803914021, 18.457557352], [83.805626626, 18.461110149], [83.813826672, 18.474546764], [83.816161759, 18.477649391], [83.826895755, 18.489348436], [83.828302767, 18.4907374], [84.496680961, 19.088274107], [84.417033191, 19.100221273], [84.413529698, 19.10107554], [84.410236559, 19.102545052], [84.407260835, 19.104582034], [84.404699268, 19.107120264], [84.402635137, 19.110077221], [84.322635137, 19.250077221], [84.320769521, 19.254505577], [84.281117762, 19.393286736], [84.221617099, 19.532121614], [84.220154442, 19.537519305], [84.200154442, 19.697519305], [84.200027097, 19.701040742], [84.200519747, 19.704529872], [84.201617099, 19.707878386], [84.261617099, 19.847878386], [84.264635574, 19.852803688], [84.364635574, 19.972803688], [84.36706022, 19.975249987], [84.369868637, 19.977243998], [84.372977531, 19.978726584], [84.532977531, 20.038726584], [84.536862594, 20.039752384], [84.540874299, 20.039980881], [84.544850713, 20.03940285], [84.704850713, 19.99940285], [84.708944272, 19.997888544], [84.868944272, 19.917888544], [84.869922779, 19.917364863], [85.009922779, 19.837364863], [85.011094004, 19.836641006], [85.131094004, 19.756641006], [85.13475493, 19.753501557], [85.137557911, 19.749577043], [85.197557911, 19.639577043], [85.199259615, 19.635391403], [85.199978338, 19.630930595], [85.199677398, 19.626422291], [85.179677398, 19.516422291], [85.178457701, 19.512298488], [85.176384638, 19.508530753], [85.106384638, 19.408530753], [85.105051534, 19.406829908], [85.035341909, 19.327161766], [84.955617376, 19.227506099], [84.951624764, 19.223725331], [84.811624764, 19.123725331], [84.808619954, 19.12195294], [84.805352877, 19.120729642], [84.788711304, 19.116106983], [84.788647306, 19.112794111], [84.786721996, 19.09707359], [84.7858173, 19.093100785], [84.780724366, 19.078032892], [84.779983702, 19.076158662], [84.69660538, 18.892786042], [84.695496958, 18.890688299], [84.685629046, 18.874427703], [84.684314283, 18.872519893], [84.217460464, 18.272673911], [84.216226608, 18.271234831], [84.205309484, 18.259660312], [84.202439911, 18.257147947], [84.189412532, 18.247776024], [84.186174698, 18.245880264], [84.171515881, 18.239055078], [84.168028815, 18.237809594], [84.152277053, 18.233781689], [84.15048717, 18.233410225], [83.911088697, 18.195042971], [83.909215373, 18.194832715], [83.892409134, 18.193745103], [83.888623192, 18.193859508], [83.8719225, 18.195958766]]], [[[85.35198343, 19.498782968], [85.348309558, 19.498778143], [85.331772588, 19.500281559], [85.328146827, 19.500952495], [85.312225328, 19.505449728], [85.308748956, 19.506792462], [85.294039729, 19.514114887], [85.290824085, 19.516116305], [85.277878658, 19.525989387], [85.275047768, 19.52861756], [85.264351775, 19.540671118], [85.262038633, 19.543863173], [85.25399363, 19.557645213], [85.252328374, 19.561296735], [85.247236756, 19.57629035], [85.246327652, 19.580251827], [85.244381237, 19.595894543], [85.244293539, 19.599979601], [85.245566265, 19.615684439], [85.246307129, 19.619690201], [85.250752153, 19.634867686], [85.25226864, 19.638601264], [85.259719949, 19.65268155], [85.260753191, 19.654416129], [85.527327327, 20.054515476], [85.528845913, 20.056511159], [85.542108751, 20.071842063], [85.54570654, 20.075100529], [85.562500428, 20.086945825], [85.564540285, 20.088208528], [85.781199362, 20.204963588], [85.782916576, 20.205786023], [85.798270308, 20.212260039], [85.801828235, 20.213382621], [85.818222712, 20.216915107], [85.821892974, 20.217356451], [85.838702372, 20.217812505], [85.840577411, 20.217775415], [86.080170899, 20.201775494], [86.078503706, 20.204564418], [86.077598198, 20.206259049], [86.071037279, 20.220098679], [86.069718572, 20.223767337], [86.065992614, 20.238515916], [86.065408579, 20.242411327], [86.064647861, 20.257556341], [86.06484002, 20.261500132], [86.067071837, 20.276515146], [86.068027134, 20.280322294], [86.073174737, 20.294685243], [86.073921373, 20.296486733], [86.10319526, 20.358398776], [86.104177017, 20.36022392], [86.112732899, 20.374325821], [86.115185715, 20.377571042], [86.126545134, 20.389786765], [86.129528266, 20.392414561], [86.143237943, 20.40225598], [86.146602869, 20.404206002], [86.162115284, 20.411279773], [86.165727792, 20.412525862], [86.182423075, 20.416549195], [86.184291784, 20.416906445], [86.301050266, 20.433516743], [86.303002718, 20.433697417], [86.307169572, 20.433877682], [86.292234038, 20.43984091], [86.290599534, 20.440580136], [86.276404663, 20.447783451], [86.273317519, 20.449722659], [86.260790738, 20.45928783], [86.258054533, 20.461813241], [86.247632933, 20.473406743], [86.245369549, 20.476466274], [86.237417058, 20.489683789], [86.235748435, 20.493187429], [86.230543093, 20.507567903], [86.229574047, 20.511383186], [86.227298245, 20.526424875], [86.227096533, 20.530382906], [86.227830552, 20.545560853], [86.228411479, 20.549473881], [86.232130573, 20.564258224], [86.233453066, 20.567944048], [86.240028204, 20.581818517], [86.24094418, 20.583531148], [86.290914926, 20.666951722], [86.291994639, 20.668570054], [86.301324615, 20.681179697], [86.303873686, 20.684014047], [86.315558991, 20.694745997], [86.318526954, 20.697000312], [86.33215036, 20.705470949], [86.333765517, 20.706374382], [86.493913457, 20.786460461], [86.371213663, 20.841676526], [86.368728033, 20.843013462], [86.347667074, 20.856338149], [86.345348724, 20.858050667], [86.228658997, 20.958011661], [86.227218772, 20.95937487], [86.215671617, 20.971444806], [86.213178717, 20.97464589], [86.204411449, 20.988628258], [86.202583872, 20.992353053], [86.19694611, 21.007691523], [86.195916693, 21.011780797], [86.193633778, 21.027864917], [86.193486799, 21.032109603], [86.194650688, 21.048299056], [86.19539948, 21.052465868], [86.199964923, 21.068115943], [86.201547783, 21.071983157], [86.209333947, 21.086470427], [86.211630732, 21.089858982], [86.222328253, 21.102606161], [86.225188872, 21.10539431], [86.238372059, 21.115893308], [86.24164375, 21.118013151], [86.256787495, 21.12584538], [86.260331965, 21.127267989], [86.276832672, 21.132121114], [86.278695577, 21.132573262], [86.624188705, 21.19907715], [86.611055864, 21.208808278], [86.608104836, 21.211489589], [86.596893999, 21.223931377], [86.594481364, 21.227233552], [86.58613827, 21.241519985], [86.584418461, 21.245331912], [86.579278412, 21.260890286], [86.578381852, 21.265041462], [86.576651976, 21.281247906], [86.576654729, 21.285519029], [86.578405527, 21.301723487], [86.579308188, 21.305875763], [86.584470531, 21.321428049], [86.58524244, 21.323398221], [86.66855977, 21.506836226], [86.669575148, 21.50878083], [86.678424326, 21.523675518], [86.680991583, 21.527100056], [86.692965855, 21.539940886], [86.694494004, 21.541414427], [86.944507409, 21.758101749], [86.945978203, 21.759260503], [86.95891591, 21.768505763], [86.960463161, 21.769507059], [87.160521916, 21.886261679], [87.162188317, 21.887131893], [87.177260101, 21.894121683], [87.180717436, 21.89535384], [87.196948982, 21.899506522], [87.200526787, 21.900082969], [87.217311377, 21.901243312], [87.220921294, 21.901166156], [87.237631436, 21.89929079], [87.241189107, 21.898559656], [87.257200109, 21.893718699], [87.260614765, 21.892331481], [87.275328203, 21.884705903], [87.278493833, 21.882665879], [87.291360012, 21.872540704], [87.294151106, 21.869869376], [87.304689657, 21.857622985], [87.306965061, 21.854376421], [87.314782892, 21.840466353], [87.316400526, 21.836749812], [87.321206459, 21.821695622], [87.322047884, 21.817668683], [87.323663431, 21.802032491], [87.323769332, 21.799964933], [87.323759245, 21.783265036], [87.323676782, 21.781462763], [87.322433618, 21.767815615], [87.32178857, 21.764284751], [87.318111265, 21.751026018], [87.317561314, 21.749337975], [87.267495537, 21.616062912], [87.266850234, 21.614539669], [87.261279542, 21.602770528], [87.259639942, 21.599933862], [87.252154206, 21.589133726], [87.251191068, 21.587856455], [87.101155963, 21.404617587], [87.099809128, 21.403131428], [87.08790717, 21.391253802], [87.086439149, 21.389927068], [86.903057029, 21.239988355], [86.901140819, 21.238602225], [86.883760663, 21.22753356], [86.879565282, 21.225505323], [86.859858145, 21.218676807], [86.857656794, 21.218052565], [86.789319847, 21.202836873], [86.791563623, 21.201498704], [86.804651047, 21.191938064], [86.807498013, 21.189409389], [86.818402755, 21.177685151], [86.820768051, 21.174583625], [86.829091036, 21.161125436], [86.830838969, 21.157544251], [86.836275992, 21.142845183], [86.837288719, 21.138927057], [86.839641505, 21.123525496], [86.83984639, 21.121494379], [86.856355421, 20.788084456], [86.856354442, 20.786086661], [86.855585377, 20.770857332], [86.854991682, 20.766928152], [86.851214109, 20.752101405], [86.849874354, 20.748406848], [86.843221856, 20.734503651], [86.841227166, 20.731198207], [86.831934173, 20.718706941], [86.829403184, 20.715902579], [86.821089342, 20.708280596], [86.82922089, 20.700848751], [86.831755574, 20.698049121], [86.84105774, 20.685586994], [86.843056662, 20.682286866], [86.849725402, 20.668410728], [86.851070377, 20.664722738], [86.8548724, 20.649919547], [86.855270512, 20.647972645], [86.888453056, 20.43135563], [86.888660284, 20.429293989], [86.889426595, 20.413459023], [86.889199092, 20.409334388], [86.886692755, 20.393660038], [86.885633545, 20.389698433], [86.879950723, 20.374780049], [86.878139279, 20.371170272], [86.86949663, 20.357574328], [86.867054142, 20.354461548], [86.855780476, 20.342704164], [86.852845672, 20.340183978], [86.839369387, 20.330711373], [86.836078659, 20.328836605], [86.820911454, 20.322008211], [86.81738802, 20.320802179], [86.801105495, 20.316877054], [86.797457551, 20.316347107], [86.780677431, 20.315474144], [86.777002723, 20.315621559], [86.76036152, 20.317833864], [86.758565573, 20.318156591], [86.7223138, 20.326393998], [86.72259635, 20.323258881], [86.722299412, 20.306724107], [86.721760423, 20.302457794], [86.717924563, 20.286321461], [86.716506036, 20.282310616], [86.709290871, 20.267239728], [86.707103501, 20.263681012], [86.696808113, 20.25029835], [86.694000341, 20.247332495], [86.681050786, 20.236190927], [86.679474732, 20.234966299], [86.512804026, 20.118314742], [86.511562919, 20.117512732], [86.500460692, 20.110906643], [86.499166217, 20.110199685], [86.439084541, 20.08020832], [86.439145267, 20.077976233], [86.438828181, 20.073844286], [86.435963351, 20.058134573], [86.434814043, 20.054187389], [86.428761846, 20.039307362], [86.426865049, 20.035731209], [86.417858773, 20.022252309], [86.415338756, 20.019188883], [86.403724889, 20.007628604], [86.402290234, 20.006332432], [86.163507743, 19.810707604], [86.162226458, 19.809741143], [86.150811864, 19.801829222], [86.148038417, 19.80021962], [86.135407718, 19.794186677], [86.133993729, 19.793576989], [85.389767655, 19.506125236], [85.38804914, 19.505549504], [85.372140486, 19.501010364], [85.368516073, 19.500329785], [85.35198343, 19.498782968]]], [[[87.52575361, 21.527010841], [87.522050895, 21.526516608], [87.50475753, 21.525838897], [87.501035065, 21.52604072], [87.483940621, 21.52858057], [87.480293297, 21.529479111], [87.464074646, 21.535135975], [87.460606125, 21.536731708], [87.445905633, 21.5452816], [87.442737148, 21.547565628], [87.430137329, 21.558669947], [87.427410508, 21.561608677], [87.417411, 21.574827563], [87.415280599, 21.578344486], [87.40827836, 21.593154183], [87.406892408, 21.597115669], [87.403165905, 21.612929223], [87.40263617, 21.617143691], [87.402334223, 21.633334167], [87.402408455, 21.635468443], [87.426546003, 21.908483895], [87.426879816, 21.910758824], [87.430408757, 21.92788515], [87.431822917, 21.932197175], [87.439186167, 21.948227029], [87.441475736, 21.952030875], [87.452335519, 21.966226303], [87.453778586, 21.967910259], [87.837150396, 22.368061465], [87.838535988, 22.369375888], [87.85051627, 22.379699993], [87.853497072, 22.381826287], [87.867334715, 22.389895958], [87.870573311, 22.391414339], [87.885784746, 22.396947448], [87.889181284, 22.397854158], [87.905234688, 22.400657247], [87.908705368, 22.400955312], [87.925039343, 22.400930382], [87.928509367, 22.400621677], [87.944552665, 22.397769635], [87.947947156, 22.39685224], [87.963138757, 22.391272855], [87.966373692, 22.389743793], [87.980182522, 22.38163219], [87.98315774, 22.37949545], [87.995101302, 22.36913525], [87.997698205, 22.366414435], [88.007359484, 22.354167793], [88.008484427, 22.352590287], [88.089799496, 22.226010912], [88.090691852, 22.228198578], [88.097618393, 22.241414847], [88.099652365, 22.244545237], [88.109024371, 22.256382944], [88.111535437, 22.259020509], [88.123046463, 22.269091904], [88.124461532, 22.270221123], [88.367813737, 22.446998389], [88.369274833, 22.447964935], [88.382294374, 22.455780226], [88.385346528, 22.457275531], [88.399646919, 22.462829987], [88.402850605, 22.463775117], [88.417981981, 22.466894], [88.421264269, 22.467291516], [88.436750499, 22.467876725], [88.440047003, 22.467728883], [88.455400748, 22.465762046], [88.457049644, 22.465480293], [88.690571107, 22.41544528], [88.692558936, 22.414911036], [88.710460156, 22.409097026], [88.714247131, 22.407415822], [88.730376603, 22.398146896], [88.733820296, 22.395645613], [88.747418274, 22.383358695], [88.748963315, 22.381800364], [88.882232292, 22.231747497], [88.883517962, 22.230140452], [88.893249521, 22.216603198], [88.89531501, 22.212987226], [88.90195023, 22.197914523], [88.903239669, 22.193864419], [88.906512885, 22.177862157], [88.906916783, 22.173585142], [88.906697631, 22.157296356], [88.906179878, 22.153036336], [88.90247835, 22.137115352], [88.901086863, 22.133112734], [88.894052716, 22.118198897], [88.891904667, 22.114652198], [88.881821244, 22.101344234], [88.879071562, 22.098389609], [88.866344289, 22.087221643], [88.864847663, 22.0860301], [88.148306918, 21.569550686], [88.146719224, 21.568516901], [88.131930064, 21.559856017], [88.128436932, 21.558239565], [88.112097686, 21.552514261], [88.108422156, 21.55160607], [88.091190314, 21.549046739], [88.087438517, 21.548846284], [88.07000733, 21.549555938], [88.06627633, 21.550062553], [88.049347049, 21.55401269], [88.04573648, 21.555227707], [88.029990281, 21.562259445], [88.026613327, 21.564180787], [88.01268402, 21.574011221], [88.009674362, 21.576620788], [87.998122965, 21.588854319], [87.995633536, 21.592100033], [87.986925705, 21.606244227], [87.985115217, 21.610021817], [87.979602458, 21.625507165], [87.978609168, 21.629650631], [87.976514575, 21.645853429], [87.976424138, 21.650143533], [87.97783325, 21.666410967], [87.978135781, 21.668550683], [88.020744501, 21.884839508], [87.824079177, 21.706865076], [87.822855831, 21.705843634], [87.811836484, 21.697364638], [87.810538271, 21.696445521], [87.610589387, 21.566503117], [87.610042407, 21.566160075], [87.605069794, 21.563152203], [87.604502426, 21.562821608], [87.563515538, 21.539832167], [87.56180314, 21.538976716], [87.546146884, 21.53207079], [87.542561195, 21.530879258], [87.52575361, 21.527010841]]]]}, "properties": {}}